FLOCK 4S-35             
1 47473U 21006BN  23250.15701975  .00558868  00000+0  20770-2 0  9998
2 47473  97.3616 317.1541 0008716 222.9239 137.1352 15.86669760145828
FLOCK 4S-8              
1 47474U 21006BP  23250.57700608  .00035542  00000+0  75581-3 0  9997
2 47474  97.3693 309.6830 0006814 160.3030 199.8483 15.44880594145411
FLOCK 4S-31             
1 47475U 21006BQ  23251.08599789  .00034207  00000+0  79745-3 0  9994
2 47475  97.3751 311.3566 0005747 132.0857 228.0880 15.42157115145566
FLOCK 4S-34             
1 47477U 21006BS  23251.14286263  .00016349  00000+0  52375-3 0  9990
2 47477  97.3820 309.6598 0005892 142.7031 217.4621 15.32434025145408
FLOCK 4S-9              
1 47478U 21006BT  23250.44356506  .00015792  00000+0  51035-3 0  9994
2 47478  97.3782 308.2489 0006361 149.9226 210.2382 15.32156907145299
FLOCK 4S-39             
1 47490U 21006CF  23250.59588003  .00016114  00000+0  51751-3 0  9997
2 47490  97.3867 309.7884 0007881 135.8518 224.3354 15.32344329145335
FLOCK 4S-4              
1 47491U 21006CG  23251.10623226  .00016195  00000+0  51988-3 0  9994
2 47491  97.3737 308.8029 0008126 132.7726 227.4201 15.32355168145410
FLOCK 4S-17             
1 47492U 21006CH  23250.47343824  .00015736  00000+0  50750-3 0  9993
2 47492  97.3892 309.7745 0008414 137.6882 222.5010 15.32209619145317
FLOCK 4S-3              
1 47494U 21006CK  23250.82397040  .00037569  00000+0  76344-3 0  9998
2 47494  97.3674 310.4302 0007529 147.5654 212.6059 15.46197991145494
FLOCK 4S-27             
1 47495U 21006CL  23251.09222879  .00018768  00000+0  64855-3 0  9990
2 47495  97.3730 308.0004 0009122 152.9466 207.2252 15.29932453145353
FLOCK 4S-18             
1 47496U 21006CM  23251.10281014  .00017608  00000+0  56503-3 0  9992
2 47496  97.3863 310.2372 0009405 139.4462 220.7482 15.32337294145412
FLOCK 4S-2              
1 47498U 21006CP  23250.78305451  .00068636  00000+0  88432-3 0  9992
2 47498  97.3628 314.1117 0007061 154.5580 205.6025 15.58779749145731
FLOCK 4S-19             
1 47500U 21006CR  23250.57216449  .00015950  00000+0  51215-3 0  9991
2 47500  97.3853 309.6948 0009054 139.1830 221.0091 15.32341489145336
FLOCK 4S-28             
1 47514U 21006DE  23250.46869050  .00014198  00000+0  45810-3 0  9993
2 47514  97.3747 308.0334 0006971 142.8083 217.3643 15.32228228146260
FLOCK 4S-5              
1 47515U 21006DF  23250.44396469  .00015859  00000+0  50397-3 0  9992
2 47515  97.3737 307.9677 0007754 139.8559 220.3257 15.32685997145301
FLOCK 4S-16             
1 47516U 21006DG  23250.91443093  .00033939  00000+0  66153-3 0  9997
2 47516  97.3838 313.5149 0007928 133.8384 226.3523 15.47428834146577
FLOCK 4S-6              
1 47518U 21006DJ  23250.58465988  .00016084  00000+0  51319-3 0  9999
2 47518  97.3767 308.2875 0007120 150.4797 209.6848 15.32558691146296
FLOCK 4S-29             
1 47520U 21006DL  23251.12581136  .00049435  00000+0  14295-2 0  9994
2 47520  97.3753 308.9845 0007404 146.7584 213.4125 15.35438006145419
FLOCK 4S-15             
1 47521U 21006DM  23250.61311939  .00035309  00000+0  71589-3 0  9995
2 47521  97.3806 311.6128 0006819 159.2591 200.8936 15.46282830146437
FLOCK 4S-37             
1 47522U 21006DN  23250.14751877  .00012484  00000+0  40191-3 0  9997
2 47522  97.3851 308.9584 0006295 147.1230 213.0405 15.32336357146220
FLOCK 4S-10             
1 47523U 21006DP  23250.39047470  .00017178  00000+0  54916-3 0  9997
2 47523  97.3796 308.3047 0006246 151.3977 208.7609 15.32488100145284
FLOCK 4S-7              
1 47527U 21006DT  23250.61614435  .00015763  00000+0  50804-3 0  9997
2 47527  97.3753 308.2237 0006541 145.3124 214.8545 15.32243099146280
FLOCK 4S-14             
1 47528U 21006DU  23251.14617283  .00017137  00000+0  55151-3 0  9998
2 47528  97.3856 309.9478 0006592 143.7023 216.4667 15.32272322146369
FLOCK 4S-36             
1 47530U 21006DW  23250.61294044  .00016365  00000+0  52563-3 0  9994
2 47530  97.3846 309.3119 0006465 146.3386 213.8267 15.32346564146285
FLOCK 4S-24             
1 47539U 21006DZ  23250.16965770  .00016032  00000+0  51550-3 0  9990
2 47539  97.3784 308.4756 0008733 135.5488 224.6456 15.32298693145272
FLOCK 4S-20             
1 47540U 21006EA  23250.16924251  .00015110  00000+0  48747-3 0  9991
2 47540  97.3846 309.1801 0008655 138.2160 221.9744 15.32205117144348
FLOCK 4S-25             
1 47542U 21006EC  23250.15445025  .00013255  00000+0  42510-3 0  9999
2 47542  97.3761 308.2262 0008835 139.5730 220.6170 15.32424203144342
FLOCK 4S-1              
1 47543U 21006ED  23250.39124844  .00020097  00000+0  62769-3 0  9999
2 47543  97.3772 308.5394 0008713 132.2450 227.9532 15.33180926144386
FLOCK 4S-30             
1 47544U 21006EE  23250.47204116  .00012288  00000+0  39661-3 0  9998
2 47544  97.3772 308.2642 0006280 144.9870 215.1785 15.32257539146265
FLOCK 4S-23             
1 47545U 21006EF  23250.62146725  .00049877  00000+0  77385-3 0  9996
2 47545  97.3713 313.3581 0007958 151.6521 208.5166 15.53807712146605
FLOCK 4S-42             
1 47612U 21006EQ  23250.14543537  .00015678  00000+0  50359-3 0  9994
2 47612  97.3819 308.8066 0008396 149.3509 210.8225 15.32340057145265
FLOCK 4S-48             
1 47617U 21006EJ  23251.14649427  .00014454  00000+0  46191-3 0  9995
2 47617  97.3812 309.9148 0009547 129.4263 230.7825 15.32512509146408
FLOCK 4S-46             
1 47684U 21006EK  23250.12768238  .00015503  00000+0  49981-3 0  9994
2 47684  97.3828 308.8443 0006103 156.5753 203.5768 15.32240944145274
FLOCK 4S-47             
1 47685U 21006EL  23250.89808096  .00019183  00000+0  61719-3 0  9997
2 47685  97.3782 308.9114 0006406 146.0736 214.0917 15.32258384146339
FLOCK 4S-44             
1 47686U 21006EM  23251.14768100  .00015902  00000+0  50770-3 0  9998
2 47686  97.3828 310.0059 0009841 144.1641 216.0263 15.32518323145420
FLOCK 4S-43             
1 47687U 21006EN  23250.76899974  .00018874  00000+0  60639-3 0  9996
2 47687  97.3791 308.8114 0005393 158.9117 201.2348 15.32312385146304
FLOCK 4S-45             
1 47688U 21006EP  23251.10346640  .00017713  00000+0  56911-3 0  9992
2 47688  97.3813 309.2987 0008837 126.1701 234.0359 15.32300944146354
FLOCK 4S-41             
1 47698U 21006ER  23250.86107131  .00016136  00000+0  51879-3 0  9991
2 47698  97.3875 309.9383 0008102 139.8758 220.3083 15.32306510145365
FLOCK 4X-8              
1 50992U 22002J   23251.11606337  .00016432  00000+0  56044-3 0  9998
2 50992  97.4330 319.6495 0006869 310.1625  49.9013 15.30406574 91514
FLOCK 4X-44             
1 50994U 22002L   23250.65728894  .00016668  00000+0  56385-3 0  9990
2 50994  97.4335 319.3337 0006761 308.3663  51.6969 15.30670091 91444
FLOCK 4X-2              
1 50996U 22002N   23251.12722426  .00016703  00000+0  57078-3 0  9990
2 50996  97.4337 319.7177 0006788 308.5965  51.4668 15.30341684 91515
FLOCK 4X-20             
1 50997U 22002P   23250.13054758  .00016650  00000+0  56573-3 0  9997
2 50997  97.4331 318.7416 0006977 313.6727  46.3935 15.30525805 91360
FLOCK 4X-30             
1 51000U 22002S   23251.11798389  .00017282  00000+0  58812-3 0  9997
2 51000  97.4279 319.2882 0006767 297.5794  62.4759 15.30467241 91510
FLOCK 4X-22             
1 51003U 22002V   23250.18398714  .00013726  00000+0  46518-3 0  9993
2 51003  97.4318 318.6988 0007053 315.7726  44.2951 15.30653474 91375
FLOCK 4X-5              
1 51004U 22002W   23251.10735387  .00016812  00000+0  57294-3 0  9990
2 51004  97.4291 319.3839 0007068 298.9627  61.0905 15.30426720 91511
FLOCK 4X-41             
1 51005U 22002X   23250.63818417  .00013855  00000+0  47127-3 0  9992
2 51005  97.4272 318.8112 0006686 298.3761  61.6805 15.30535014 91441
FLOCK 4X-3              
1 51006U 22002Y   23250.17439559  .00014354  00000+0  48662-3 0  9998
2 51006  97.4331 318.8241 0007320 310.6503  49.4100 15.30628972 91379
FLOCK 4X-18             
1 51007U 22002Z   23251.11569358  .00013597  00000+0  45338-3 0  9990
2 51007  97.4277 319.5238 0008434 295.5546  64.4822 15.31171721 91529
FLOCK 4X-37             
1 51009U 22002AB  23250.18079151  .00015699  00000+0  53322-3 0  9992
2 51009  97.4336 318.8783 0007516 309.7890  50.2688 15.30546034 91372
FLOCK 4X-15             
1 51010U 22002AC  23250.66791277  .00023410  00000+0  70505-3 0  9999
2 51010  97.4328 319.9293 0008030 283.7427  76.2922 15.34313511 91489
FLOCK 4X-29             
1 51011U 22002AD  23250.64027520  .00015783  00000+0  53695-3 0  9996
2 51011  97.4307 318.9640 0007060 302.7219  57.3341 15.30495453 91448
FLOCK 4X-12             
1 51015U 22002AH  23251.10871800  .00016280  00000+0  55815-3 0  9999
2 51015  97.4327 319.6941 0008124 302.5500  57.4955 15.30229989 91518
FLOCK 4X-25             
1 51016U 22002AJ  23251.13147856  .00020360  00000+0  67661-3 0  9996
2 51016  97.4298 319.6699 0007360 309.9849  50.0745 15.31198673 91527
FLOCK 4X-1              
1 51017U 22002AK  23251.09901231  .00016983  00000+0  57987-3 0  9993
2 51017  97.4295 319.4308 0007733 301.6102  58.4383 15.30357655 91510
FLOCK 4X-42             
1 51018U 22002AL  23250.12081498  .00016412  00000+0  56060-3 0  9999
2 51018  97.4277 318.3199 0007320 302.0738  57.9791 15.30355041 91366
FLOCK 4X-16             
1 51020U 22002AN  23250.63001295  .00016525  00000+0  56162-3 0  9993
2 51020  97.4286 318.9063 0007245 298.7994  61.2519 15.30518319 91440
FLOCK 4X-38             
1 51023U 22002AR  23250.44080897  .00016063  00000+0  54848-3 0  9996
2 51023  97.4334 319.0968 0007814 306.1973  53.8545 15.30367051 91414
FLOCK 4X-32             
1 51024U 22002AS  23251.09817217  .00013261  00000+0  45555-3 0  9995
2 51024  97.4345 319.7931 0007611 300.2602  59.7885 15.30217141 91510
FLOCK 4X-26             
1 51026U 22002AU  23250.16018759  .00015554  00000+0  52849-3 0  9999
2 51026  97.4297 318.5604 0007751 310.6589  49.3977 15.30534970 91379
FLOCK 4X-43             
1 51027U 22002AV  23250.49496582  .00015715  00000+0  53511-3 0  9996
2 51027  97.4290 318.8385 0007455 299.5964  60.4533 15.30464923 91423
